1 04712U 70091T   21053.84277158  .00000200  00000-0  90845-4 0  9996
2 04712  62.7890 255.8285 0520988 236.4576 118.5681 13.90152026472549
1  4715U 70025BZ  21054.52153878 -.00000297  00000-0 -23918-3 0  9998
2  4715  99.2662 138.2821 0036331 228.0577 145.1991 13.80808496546131
1 04716U 70025CA  21053.81389984  .00002274  00000-0  16343-2 0  9997
2 04716  99.9832   0.4144 0010617 111.5855 276.6596 13.98098267553674
1 04717U 70025CB  21053.74658340  .00000018  00000-0  96792-4 0  9997
2 04717 100.1998  56.6148 0002641 352.4533 181.2617 13.54322728510691
1 04718U 70025CC  21053.66569589  .00000210  00000-0  16442-3 0  9992
2 04718 100.0212 300.1351 0105604   3.1692 357.0117 14.01794874581999
1  4719U 70025CD  21054.09622532  .00000183  00000-0  16718-3 0  9994
2  4719  99.9487 293.5576 0125313 321.7587  37.4732 13.93616945572551
1  4720U 70025CE  21054.20206455  .00000531  00000-0  38209-3 0  9997
2  4720  99.9837 152.9317 0085595 106.5385 254.5200 14.00214192579023
1 04723U 70091U   21053.70914440  .00009117  00000-0  60712-3 0  9990
2 04723  62.7318 194.3855 0245936 123.5852 238.8981 14.86207607544019
1 04724U 70091V   21053.80484776  .00000417  00000-0  14129-3 0  9991
2 04724  62.7926  89.5096 0476749 245.2669 109.8059 13.99909099485512
1 04727U 70091Y   21053.86545285  .00000688  00000-0  19776-3 0  9996
2 04727  62.6964 219.5981 0500278 218.6884 137.7326 13.98181356480533
1 04728U 70091Z   21053.65636982  .00000681  00000-0  18910-3 0  9991
2 04728  62.8883  25.4527 0775864  73.0396 295.4134 13.48216131414375
1 04733U 70025CG  21053.70051900  .00000439  00000-0  11863-3 0  9992
2 04733  99.9139  55.1397 0121425 246.0759 112.7672 14.50245657622901
1  4734U 70025CH  21054.19508882  .00000234  00000-0  25073-3 0  9994
2  4734 100.1064 319.1200 0084284 355.4147   4.6224 13.83801184554507
1  4735U 70025CJ  21053.56703143  .00000977  00000-0  28754-3 0  9995
2  4735  99.6681  83.7241 0051953 155.0728 205.2986 14.45668692612389
1 04736U 70025CK  21053.74028357  .00000472  00000-0  34566-3 0  9991
2 04736 100.1042 216.6649 0090007 358.6122   1.4776 13.99820977574935
1 04737U 70025CL  21053.76762702  .00000926  00000-0  52689-3 0  9993
2 04737  99.0109 339.1467 0031828 222.8681 137.0009 14.12136721572210
1  4738U 70025CM  21054.07522315  .00000707  00000-0  46107-3 0  9998
2  4738 100.0761 157.9784 0054256 134.0623 226.5028 14.05561633567356
1  4739U 70025CN  21054.14396980  .00000486  00000-0  43727-3 0  9993
2  4739  99.9373 114.8767 0005128 163.4912 223.1570 13.89640339544426
1 04741U 70025CQ  21053.84559764  .00000158  00000-0  10505-2 0  9996
2 04741 100.2829 178.4411 0790504 239.9081 282.1813 11.94194713217547
1 04742U 70025CR  21053.78415282  .00000040  00000-0  13006-3 0  9996
2 04742 100.1854  53.2103 0019214 229.0554 304.7321 13.53638990507421
1 04743U 70025CS  21053.63320244  .00000103  00000-0  21006-3 0  9993
2 04743 100.1060  74.6130 0036572 100.5419  17.7951 13.56847257509756
1 04744U 70025CT  21053.85538065  .00000081  00000-0  18207-3 0  9994
2 04744 100.0410   8.1980 0016304 359.1375   0.9731 13.56235115512189
1 04745U 70025CU  21053.84165972  .00000313  00000-0  28657-3 0  9995
2 04745 100.0867 189.1029 0028312  83.8936 276.5445 13.91513544550859
1 04746U 70025CV  21053.74219571  .00004878  00000-0  78694-3 0  9996
2 04746  99.9945 228.2707 0008444 230.3505 129.6951 14.72036318600301
1  4748U 70025CW  21054.51964006  .00000199  00000-0  31701-3 0  9994
2  4748  99.9727 148.2980 0004899 301.2729  58.7931 13.62508016519105
1  4749U 70025CX  21054.10761500  .00000204  00000-0  23557-3 0  9991
2  4749  99.1744 292.7219 0014929 156.1628 204.0220 13.80425990535673
1  4751U 70025CZ  21054.04566277  .00000264  00000-0  29254-3 0  9997
2  4751 100.1083 336.1989 0006781  30.6680 329.4866 13.82124850537485
1 04752U 70025DA  21053.82831087 -.00000194  00000-0 -89018-4 0  9996
2 04752  99.8755 346.9164 0026623 337.7779  22.2229 14.04312490560770
1 04753U 70025DB  21053.90965697  .00000393  00000-0  42893-3 0  9999
2 04753 100.0385  42.5487 0006631 313.4907  46.5691 13.79625418534886
1  4754U 70025DC  21054.19068007  .00001048  00000-0  60373-3 0  9992
2  4754  99.6052 187.4802 0015824 309.1447  50.8315 14.11620173558940
1  4755U 70025DD  21053.91122789  .00000607  00000-0  54533-3 0  9991
2  4755 100.1702  63.0186 0005125  59.5132 300.6528 13.88825810541150
1 04756U 70025DE  21053.84768201  .00000010  00000-0  90362-4 0  9998
2 04756 100.1787  14.2901 0027194 213.9190 146.0204 13.48751285500481
1  4757U 70025DF  21054.16107148  .00000142  00000-0  24048-3 0  9995
2  4757  99.5863 309.8716 0014064   3.2210 356.9020 13.62066276516941
1 04759U 70025DH  21053.62039508  .00000169  00000-0  23856-3 0  9996
2 04759  99.9774 310.0499 0001108 162.0606 259.9237 13.72195608528474
1 04764U 70025DJ  21053.65516117  .00001999  00000-0  11581-2 0  9994
2 04764  99.5040 306.8486 0043915 141.4514 218.9803 14.09640702551068
1  4765U 70025DK  21054.11939496  .00001418  00000-0  35479-3 0  9995
2  4765  99.5844 167.1219 0066442 201.9287 157.9058 14.52117596624751
1  4766U 70025DL  21054.13606808 -.00000012  00000-0  49145-4 0  9992
2  4766  99.9547 152.2703 0010019 120.2418 357.3319 13.55402716514170
1  4767U 70025DM  21054.46912299  .00000145  00000-0  21139-3 0  9991
2  4767 100.0473  50.2919 0053263 152.0112 359.8949 13.72013981536600
1 04768U 70025DN  21053.72129022 -.00000002  00000-0  53411-4 0  9996
2 04768 100.1076 324.5433 0029814 252.0189 162.8015 13.69963683532015
1 04769U 70025DP  21053.84668543  .00001468  00000-0  31837-3 0  9999
2 04769  99.6163 208.6455 0048813 342.6757  17.2771 14.59365392587945
1 04772U 70025DS  21053.92547471 -.00000645  00000-0 -12812-2 0  9997
2 04772  99.8106 303.3796 0183482 220.1193 152.3994 13.24540480445119
1  4773U 70025DT  21054.19094161  .00000069  00000-0  16761-3 0  9997
2  4773 100.0810  34.0564 0032109  11.9218   0.0485 13.55126556505569
1  4774U 70025DU  21054.20606855  .00000526  00000-0  58708-3 0  9994
2  4774  99.7555 118.0179 0046277 114.0520 273.7592 13.75796570523320
1 04776U 70025DW  21053.75132375  .00000667  00000-0  55051-3 0  9990
2 04776 100.1014 150.4636 0020908 132.2228  21.3675 13.93160362468092
1 04777U 70025DX  21053.81122633  .00000797  00000-0  75554-3 0  9998
2 04777  99.9534  13.2348 0011614 133.7691 256.2688 13.84413532537950
1 04778U 70025DY  21053.79965090  .00000063  00000-0  15960-3 0  9999
2 04778 100.1341  53.8834 0035493 175.0107 358.7584 13.54671218508612
1  4783U 70102A   21054.11654292 -.00000011  00000-0  11976-4 0  9995
2  4783  74.0354 350.2693 0029650  74.3834 286.0555 13.74800066519681
1 04784U 70102B   21053.82255115 -.00000080  00000-0 -58329-4 0  9994
2 04784  74.0266 264.0041 0026542 341.0415  29.5973 13.76711969522200
1 04786U 70103A   21053.73226487 -.00000023  00000-0  00000-0 0  9992
2 04786  55.8760 308.6248 1331241 309.9745  62.8161  8.42042833545148
1 04789U 70103B   21053.82964338 -.00000139  00000-0 -53085-2 0  9991
2 04789  51.5842 225.3442 1797922 179.2322 331.8677  9.06814026663679
1  4790U 70103C   21054.18996774 -.00000013  00000-0  14831-2 0  9998
2  4790  51.5949  18.1101 1785605  64.5562 312.8959  9.05040216660744
1  4793U 70106A   21054.47800721 -.00000044  00000-0  10962-5 0  9990
2  4793 101.6226 124.0264 0032000 172.7821 198.5023 12.53998145298032
1 04794U 70106B   21053.90417931 -.00000038  00000-0  36216-4 0  9997
2 04794 101.5327 113.7045 0037022 184.3209 348.9497 12.53238335688356
1  4799U 70108A   21054.34610656 -.00000001  00000-0  21554-4 0  9991
2  4799  74.0227  21.0577 0003434  10.3894 140.7706 13.76784884522217
1 04800U 70108B   21053.74310535  .00000045  00000-0  66930-4 0  9994
2 04800  74.0214 294.4067 0008395  64.0661 296.1325 13.78705330524682
1 04814U 70113B   21053.85296922  .00002683  00000-0  74641-4 0  9998
2 04814  81.1408 215.8107 0024648 127.1967 233.1527 15.36127484741569
1 04818U 70025DZ  21053.67203803  .00000215  00000-0  62537-3 0  9999
2 04818  99.8059  94.4534 0266549 348.9371 125.2269 13.09129329425815
1 04819U 70025EA  21053.71031010  .00000740  00000-0  40290-3 0  9999
2 04819 100.1048 121.8228 0041254 252.6062 107.0594 14.15638397567989
1 04820U 70025EB  21053.87323522  .00002194  00000-0  79257-3 0  9990
2 04820  99.7063 109.6264 0027928 103.0815 257.3486 14.34558698564669
1 04821U 70025EC  21053.90602497  .00000064  00000-0  15361-3 0  9996
2 04821 100.0089  24.7903 0010332  13.1822   4.7495 13.57895228512766
1 04822U 70025ED  21053.67380054  .00000090  00000-0  84795-4 0  9990
2 04822  99.3660 123.4449 0060126  86.0770 274.7266 14.04333324517218
1 04823U 70089T   21053.88046104 -.00000185  00000-0 -12667-3 0  9994
2 04823  63.0422  10.0451 0878969 242.5838 108.3111 12.64398900291140
1 04841U 68055D   21053.78822980  .00000023  00000-0  12178-3 0  9993
2 04841 120.7887 343.8312 2666465 100.7287 359.6449  9.28661093247418
1  4842U 70025EE  21054.17268026  .00000985  00000-0  72159-3 0  9995
2  4842  99.9335 219.6446 0021470  89.6188 270.7433 13.98538624551268
1 04843U 67034E   21053.71918340  .00000079  00000-0  10780-3 0  9998
2 04843  90.4042  62.4019 0027984   7.5471  45.0849 13.52022750 11397
1  4851U 70025EF  21053.96372077  .00006619  00000-0  85133-3 0  9999
2  4851  99.8653 242.9789 0006815 246.3249 113.7243 14.81576046597498
1  4852U 70025EG  21054.19824423  .00003932  00000-0  50924-3 0  9998
2  4852  99.6713 317.5239 0014084 178.9402 181.1837 14.81559214620764
1 04854U 70025EJ  21053.65643661  .00000011  00000-0  77643-4 0  9996
2 04854  99.5641 301.9327 0018411  45.1327 342.3921 13.55855496509244
1  4855U 70025EK  21054.53495532  .00000203  00000-0  27762-3 0  9996
2  4855 100.0141 268.6284 0016214 344.7435  33.7951 13.71729127531277
1 04856U 70025EL  21053.76404561  .00000113  00000-0  87028-4 0  9995
2 04856  99.7317 351.9811 0156918 232.7790 125.8971 14.07713867597186
1 04857U 70025EM  21053.63706459  .00000612  00000-0  33090-3 0  9996
2 04857  99.7752  90.7206 0055242 125.8754 234.7564 14.16159218547857
